C/2013 V2 (Borisov),h,10/14.3309/2014,37.8563,48.4098,94.4932,1.003476,3.508311,2000,7.0,4.0
# From MPC 88329
C/2013 V3 (Nevski),e,32.1329,100.9234,339.6409,12.66940,0.0218560,0.89044661,17.0334,12/18.0/2015,2000,g 14.0,4.0
# From MPC 96865
C/2013 V4 (Catalina),h,10/07.6352/2015,67.8565,55.6226,40.4529,1.002505,5.185384,2000,6.0,4.0
# From MPC 94279
C/2013 V5 (Oukaimeden),e,154.8828,278.6914,314.6701,433.0865,0.0001094,0.99855346,0.0000,09/28.1102/2014,2000,g  9.0,4.0
# From MPC 91613
P/2013 W1 (PANSTARRS),e,4.6995,117.8559,1.3530,3.486030,0.1514284,0.59360834,98.4094,12/18.0/2015,2000,g 17.5,4.0
# From MPC 94279
C/2013 W2 (PANSTARRS),e,4.7719,178.5299,306.7506,10.39604,0.0294037,0.57464189,10.5795,12/18.0/2015,2000,g 13.5,2.0
# From MPC 96865
C/2013 X1 (PANSTARRS),h,04/20.7263/2016,163.2314,130.9540,164.4595,1.001034,1.314235,2000,10.5,2.0
# From MPC 90768
C/2013 Y2 (PANSTARRS),e,29.4067,243.3833,308.8840,227.2846,0.0002876,0.99155487,0.0000,06/13.7213/2014,2000,g 12.0,4.0
# From MPC 87480
P/2013 YG46 (Spacewatch),e,7.8530,48.9540,242.2152,3.280168,0.1659052,0.45468022,292.2780,12/18.0/2015,2000,g 10.0,4.0
# From MPC 89728
P/2014 A2 (Hill),e,24.5132,106.6715,356.2392,5.918602,0.0684503,0.64919398,53.4510,12/18.0/2015,2000,g 15.0,4.0
# From MPC 92981
P/2014 A3 (PANSTARRS),e,13.6832,230.4676,212.6359,4.661585,0.0979273,0.24038675,95.7715,12/18.0/2015,2000,g 12.0,4.0
# From MPC 96865
C/2014 A4 (SONEAR),h,09/05.8539/2015,121.3615,29.7275,356.7867,1.000915,4.180189,2000,6.0,4.0
# From MPC 93585
C/2014 A5 (PANSTARRS),e,31.9778,310.0693,182.4127,90.27409,0.0011491,0.94683754,0.5671,12/18.0/2015,2000,g 10.0,4.0
# From MPC 96865
C/2014 AA52 (Catalina),h,02/27.6550/2015,105.2114,330.4932,292.2605,1.000626,2.002450,2000,10.0,4.0
# From MPC 96865
C/2014 B1 (Schwartz),h,09/08.3824/2017,28.3663,161.4013,345.7365,1.005007,9.558876,2000,4.0,4.0
# From MPC 88696
P/2014 C1 (TOTAS),e,2.6827,167.9427,24.2421,3.070959,0.1831441,0.45032865,133.4003,12/18.0/2015,2000,g 15.5,4.0
# From MPC 88697
C/2014 C2 (STEREO),e,135.4985,283.3502,56.0127,601.3818,0.0000668,0.99914890,0.0000,02/18.1450/2014,2000,g 18.0,4.0
# From MPC 90272
C/2014 C3 (NEOWISE),e,151.7939,204.5089,345.9356,105.9300,0.0009040,0.98242703,0.0000,01/16.5547/2014,2000,g 14.0,4.0
# From MPC 91614
P/2014 E1 (Larson),e,15.9792,39.0717,185.8444,3.713669,0.1377207,0.42353359,79.1710,12/18.0/2015,2000,g 14.0,4.0
# From MPC 95210
C/2014 E2 (Jacques),e,156.3840,56.4325,344.0668,794.8138,0.0000440,0.99916519,0.0000,07/02.5688/2014,2000,g  7.1,4.4
# From MPC 90769
C/2014 F1 (Hill),e,108.2496,239.8795,8.2278,1844,0.0000125,0.99810325,0.0000,10/04.6156/2013,2000,g 10.5,4.0
# From MPC 95210
C/2014 F2 (Tenagra),e,119.0580,267.4538,86.0849,146.4632,0.0005560,0.97053899,0.0000,01/02.5424/2015,2000,g  9.5,4.0
# From MPC 94280
C/2014 F3 (Sheppard-Trujillo),e,6.4816,327.5293,1.1277,16.16805,0.0151606,0.64581644,330.2142,12/18.0/2015,2000,g  6.0,4.0
# From MPC 90272
C/2014 G1 (PANSTARRS),e,165.6376,337.9530,77.0617,764.1511,0.0000467,0.99284261,0.0000,11/06.2446/2013,2000,g  9.0,4.0
# From MPC 94280
C/2014 G3 (PANSTARRS),e,155.8411,4.5478,147.9033,56.54897,0.0023178,0.91689755,0.7362,12/18.0/2015,2000,g  9.0,4.0
# From MPC 88697
C/2014 H1 (Christensen),e,99.9310,34.6885,169.1986,135.6201,0.0006240,0.98422371,0.0000,04/15.2795/2014,2000,g 14.5,4.0
# From MPC 89010
C/2014 J1 (Catalina),e,159.6946,41.9882,195.4884,8.651457,0.0387320,0.80256540,21.1508,12/18.0/2015,2000,g 17.0,4.0
# From MPC 93585
P/2014 L2 (NEOWISE),e,5.1845,149.4080,182.7438,6.318399,0.0620574,0.64639887,32.3135,12/18.0/2015,2000,g 12.0,4.0
# From MPC 90769
P/2014 L3 (Hill),e,6.2641,115.5592,178.5761,8.160525,0.0422792,0.77293185,22.7239,12/18.0/2015,2000,g 16.0,4.0
# From MPC 95731
C/2014 L5 (Lemmon),h,11/26.1734/2014,122.8146,35.7019,45.6032,1.002639,6.202898,2000,8.0,4.0
# From MPC 95732
C/2014 M1 (PANSTARRS),h,08/26.4969/2015,160.1740,234.6769,336.7438,1.002038,5.576674,2000,9.0,4.0
# From MPC 95732
C/2014 M2 (Christensen),e,32.4003,245.3054,40.7167,1057,0.0000287,0.99346536,0.0000,07/17.9783/2014,2000,g  6.0,4.0
# From MPC 90769
C/2014 M3 (Catalina),e,164.9060,80.3709,93.7127,137.1654,0.0006135,0.98225976,0.0000,06/21.8794/2014,2000,g 14.0,4.0
# From MPC 91614
P/2014 M4 (PANSTARRS),e,3.3426,265.0160,145.4292,5.824143,0.0701223,0.59611018,24.8986,12/18.0/2015,2000,g 15.0,4.0
# From MPC 95732
P/2014 MG4 (Spacewatch-PANSTARRS),e,9.3677,311.8490,298.7451,5.012043,0.0878379,0.25941207,80.6316,12/18.0/2015,2000,g  9.5,4.0
# From MPC 93586
C/2014 N2 (PANSTARRS),h,10/08.4023/2014,132.9893,143.8232,237.9770,1.000180,2.187477,2000,14.5,4.0
# From MPC 96865
C/2014 N3 (NEOWISE),e,61.6408,19.9287,353.5602,4526,0.0000032,0.99914224,0.0000,03/13.1684/2015,2000,g  7.0,4.0
# From MPC 90770
P/2014 O3 (PANSTARRS),e,7.8064,87.6903,204.3966,7.544086,0.0475657,0.38487063,28.9796,12/18.0/2015,2000,g 10.5,4.0
# From MPC 95732
C/2014 OE4 (PANSTARRS),e,81.3570,240.4088,65.7205,6865,0.0000017,0.99909030,0.0000,12/10.5375/2016,2000,g 11.0,2.0
# From MPC 96278
C/2014 Q1 (PANSTARRS),e,43.1089,8.7584,120.0544,1058,0.0000286,0.99970257,0.0000,07/06.5095/2015,2000,g  8.0,4.0
# From MPC 96865
C/2014 Q2 (Lovejoy),e,80.2998,94.9785,12.3995,562.8661,0.0000738,0.99770721,0.0000,01/30.0608/2015,2000,g  2.7,10.0
# From MPC 90770
C/2014 QU2 (PANSTARRS),e,124.8182,333.0018,320.4373,244.6435,0.0002576,0.99091622,0.0000,07/09.8660/2014,2000,g 15.0,4.0
# From MPC 94280
C/2014 Q3 (Borisov),e,89.9435,63.1339,47.3873,28.39763,0.0065130,0.94198144,2.5657,12/18.0/2015,2000,g -0.5,20.0
# From MPC 95732
C/2014 Q6 (PANSTARRS),e,49.7969,326.6550,2.5067,4580,0.0000032,0.99907807,0.0000,01/06.2031/2015,2000,g  9.5,4.0
# From MPC 95211
C/2014 R1 (Borisov),e,9.9320,104.0526,55.6640,180.6700,0.0004059,0.99255111,0.0000,11/19.2503/2014,2000,g  6.5,8.8
# From MPC 96865
C/2014 R3 (PANSTARRS),h,08/07.5697/2016,90.8365,334.1153,113.3793,1.000441,7.275525,2000,6.5,4.0
# From MPC 92982
C/2014 R4 (Gibbs),e,42.4081,279.5172,180.8284,1870,0.0000122,0.99902766,0.0000,10/21.4368/2014,2000,g 13.0,4.0
# From MPC 91615
P/2014 R5 (Lemmon-PANSTARRS),e,1.0882,126.5435,213.8227,4.061868,0.1203969,0.41249994,66.0576,12/18.0/2015,2000,g 15.0,4.0
# From MPC 95732
C/2014 S1 (PANSTARRS),h,10/30.6281/2013,123.8112,352.6533,288.8277,1.002390,8.137214,2000,7.0,4.0
# From MPC 96865
C/2014 S2 (PANSTARRS),e,64.6704,8.1226,87.8094,169.7825,0.0004455,0.98762745,0.0000,12/09.8038/2015,2000,g 10.0,4.0
# From MPC 90770
C/2014 S3 (PANSTARRS),e,169.3222,356.0559,293.1509,88.66803,0.0011805,0.97689086,0.0000,08/13.3774/2014,2000,g 17.0,4.0
# From MPC 91615
C/2014 TG64 (Catalina),e,22.2878,50.2902,294.7452,14.84728,0.0172280,0.78188061,9.8401,12/18.0/2015,2000,g 13.0,4.0
# From MPC 92274
P/2014 U2 (Kowalski),e,7.5015,356.1641,35.2547,2.933991,0.1961173,0.60389365,85.6052,12/18.0/2015,2000,g 19.5,4.0
# From MPC 91616
C/2014 U3 (Kowalski),e,152.9934,163.5812,51.3253,812.8778,0.0000425,0.99685200,0.0000,09/03.5680/2014,2000,g 14.5,4.0
# From MPC 91616
P/2014 U4 (PANSTARRS),e,6.4572,12.0245,347.8471,3.487308,0.1513452,0.47079305,75.8264,12/18.0/2015,2000,g 18.0,4.0
# From MPC 95211
P/2014 V1 (PANSTARRS),e,22.4711,166.2635,177.7001,5.495855,0.0764982,0.53264964,25.3571,12/18.0/2015,2000,g 14.0,4.0
# From MPC 93586
P/2014 W1 (PANSTARRS),e,8.8018,247.1828,150.6197,4.417643,0.1061496,0.39676825,53.4130,12/18.0/2015,2000,g 15.5,4.0
# From MPC 96866
C/2014 W2 (PANSTARRS),e,81.9983,69.9620,85.0081,1595,0.0000155,0.99832543,0.0000,03/10.4784/2016,2000,g  7.5,4.0
# From MPC 92274
C/2014 W3 (PANSTARRS),h,02/26.7384/2014,90.0823,286.3699,158.8806,1.004967,6.064578,2000,8.5,4.0
# From MPC 96866
P/2014 W4 (PANSTARRS),e,15.2745,33.3529,67.4271,6.586914,0.0583017,0.35310017,359.3224,12/18.0/2015,2000,g 11.0,4.0
# From MPC 95211
C/2014 W6 (Catalina),h,03/19.0446/2015,53.5659,338.1302,209.8671,1.001217,3.087806,2000,10.5,4.0
# From MPC 92982
C/2014 W7 (Christensen),e,98.3138,151.2610,33.2545,11.38373,0.0256612,0.86924066,9.0163,12/18.0/2015,2000,g 16.0,4.0
# From MPC 91616
C/2014 W8 (PANSTARRS),e,41.9429,224.8481,228.0565,192.6413,0.0003686,0.97392760,0.0000,09/10.4035/2015,2000,g 11.0,4.0
# From MPC 94672
C/2014 W9 (PANSTARRS),e,10.6304,21.2834,167.7873,11.17197,0.0263943,0.85789154,8.0575,12/18.0/2015,2000,g 16.0,4.0
# From MPC 95211
C/2014 W11 (PANSTARRS),e,12.7014,295.9030,225.6214,9.758379,0.0323324,0.64885396,5.9480,12/18.0/2015,2000,g 10.0,4.0
# From MPC 93587
P/2014 W12 (Gibbs),e,8.5130,299.2703,37.0087,3.518775,0.1493196,0.52364671,59.4141,12/18.0/2015,2000,g 15.0,4.0
# From MPC 94281
P/2014 X1 (Elenin),e,25.9766,61.5375,34.3594,6.254758,0.0630069,0.70994170,21.6944,12/18.0/2015,2000,g 15.0,4.0
# From MPC 96866
C/2014 XB8 (PANSTARRS),e,149.7861,37.4689,351.4526,999.4335,0.0000312,0.99698806,0.0000,04/05.6449/2015,2000,g 13.5,4.0
# From MPC 94672
C/2014 Y1 (PANSTARRS),h,01/17.6100/2016,14.9280,19.4751,182.2608,1.001765,2.242155,2000,9.5,4.0
# From MPC 95733
C/2015 A1 (PANSTARRS),e,80.3664,341.0855,244.8896,20.15615,0.0108916,0.90099250,3.0487,12/18.0/2015,2000,g 14.5,4.0
# From MPC 93587
C/2015 A2 (PANSTARRS),p,08/01.8353/2015,109.1696,208.8369,5.341055,258.5042,2000,10.5,4.0
# From MPC 92275
P/2015 A3 (PANSTARRS),e,172.5193,277.0978,249.2688,7.853042,0.0447865,0.85285152,13.3692,12/18.0/2015,2000,g 20.0,4.0
# From MPC 94281
C/2015 B1 (PANSTARRS),e,18.0400,353.3575,188.4158,9.633583,0.0329627,0.37971380,2.8815,12/18.0/2015,2000,g  8.5,4.0
# From MPC 96866
C/2015 B2 (PANSTARRS),h,05/06.5709/2016,105.0882,341.9013,284.7672,1.000206,3.369617,2000,9.5,4.0
# From MPC 94672
P/2015 C1 (TOTAS-Gibbs),e,13.8804,348.8616,178.3873,6.596852,0.0581700,0.56151321,13.4279,12/18.0/2015,2000,g 12.5,4.0
# From MPC 95211
C/2015 C2 (SWAN),e,94.5003,49.5352,334.1314,457.8882,0.0001006,0.99844640,0.0000,03/04.5565/2015,2000,g 14.0,4.0
# From MPC 94282
C/2015 D2 (PANSTARRS),e,31.9249,162.8151,292.4016,12.94236,0.0211682,0.56541513,17.1120,12/18.0/2015,2000,g  8.0,4.0
# From MPC 94282
